[{"OBJECT_NAME":"SHIYAN-6 01 (SY-6 01)","OBJECT_ID":"2018-094B","EPOCH":"2026-03-09T23:04:36.967872","MEAN_MOTION":15.28649156,"ECCENTRICITY":0.00144834,"INCLINATION":97.3669,"RA_OF_ASC_NODE":84.0964,"ARG_OF_PERICENTER":135.6758,"MEAN_ANOMALY":224.5644,"EPHEMERIS_TYPE":0,"CLASSIFICATION_TYPE":"U","NORAD_CAT_ID":43711,"ELEMENT_SET_NO":999,"REV_AT_EPOCH":40632,"BSTAR":0.00024768444,"MEAN_MOTION_DOT":6.847e-5,"MEAN_MOTION_DDOT":0},{"OBJECT_NAME":"STARLINK-30774","OBJECT_ID":"2023-203H","EPOCH":"2026-03-09T08:58:59.282400","MEAN_MOTION":15.27574396,"ECCENTRICITY":0.00012458,"INCLINATION":43.004,"RA_OF_ASC_NODE":68.829,"ARG_OF_PERICENTER":274.6375,"MEAN_ANOMALY":85.4334,"EPHEMERIS_TYPE":0,"CLASSIFICATION_TYPE":"U","NORAD_CAT_ID":58625,"ELEMENT_SET_NO":999,"REV_AT_EPOCH":12351,"BSTAR":4.910597e-6,"MEAN_MOTION_DOT":-1.27e-6,"MEAN_MOTION_DDOT":0}]
